NORAD_CAT_ID,OBJECT_NAME,OBJECT_TYPE,EPOCH,MEAN_MOTION,ECCENTRICITY,INCLINATION,RA_OF_ASC_NODE,ARG_OF_PERICENTER,MEAN_ANOMALY,BSTAR,MEAN_MOTION_DOT,MEAN_MOTION_DDOT,TLE_LINE0,TLE_LINE1,TLE_LINE2,SEMIMAJOR_AXIS,PERIOD,APOGEE,PERIGEE,DECAYED
54808.0,STARLINK-5413,PAYLOAD,2024-08-14 06:37:11,15.08836639,0.0001445,53.2106,63.9578,101.8418,258.2736,-0.00019831,-3.442e-05,0.0,0 STARLINK-5413,1 54808U 22175BC  24227.27582492 -.00003442  00000-0 -19831-3 0  9998,2 54808  53.2106  63.9578 0001445 101.8418 258.2736 15.08836639 91764,6917.891,95.438,540.755,538.756,0.0
54808.0,STARLINK-5413,PAYLOAD,2024-08-14 20:55:39,15.08852482,0.0001141,53.2177,61.2812,104.0717,256.0402,0.00018601,2.675e-05,0.0,0 STARLINK-5413,1 54808U 22175BC  24227.87198204  .00002675  00000-0  18601-3 0  9997,2 54808  53.2177  61.2812 0001141 104.0717 256.0402 15.08852482 94015,6917.842,95.437,540.497,538.918,0.0
54808.0,STARLINK-5413,PAYLOAD,2024-08-15 06:27:58,15.08848834,0.0001214,53.2181,59.4958,97.8255,262.2875,0.00066851,0.0001037,0.0,0 STARLINK-5413,1 54808U 22175BC  24228.26942396  .00010370  00000-0  66851-3 0  9991,2 54808  53.2181  59.4958 0001214  97.8255 262.2875 15.08848834 94072,6917.853,95.437,540.558,538.879,0.0
54808.0,STARLINK-5413,PAYLOAD,2024-08-15 19:11:04,15.08832747,0.0001925,53.2149,57.1234,70.2365,289.8834,-2.3673e-05,-6.65e-06,0.0,0 STARLINK-5413,1 54808U 22175BC  24228.79935489 -.00000665  00000-0 -23673-4 0  9998,2 54808  53.2149  57.1234 0001925  70.2365 289.8834 15.08832747 91998,6917.903,95.438,541.099,538.436,0.0
54808.0,STARLINK-5413,PAYLOAD,2024-08-15 20:46:27,15.08834951,0.0001692,53.2146,56.8238,78.417,281.7012,7.0893e-05,8.4e-06,0.0,0 STARLINK-5413,1 54808U 22175BC  24228.86559321  .00000840  00000-0  70893-4 0  9992,2 54808  53.2146  56.8238 0001692  78.4170 281.7012 15.08834951 94160,6917.896,95.438,540.931,538.59,0.0
54808.0,STARLINK-5413,PAYLOAD,2024-08-18 12:21:54,15.08866874,0.0001546,53.2164,44.926,107.9486,252.1674,0.00015662,2.207e-05,0.0,0 STARLINK-5413,1 54808U 22175BC  24231.51521251  .00002207  00000-0  15662-3 0  9990,2 54808  53.2164  44.9260 0001546 107.9486 252.1674 15.08866874 92409,6917.798,95.436,540.733,538.594,0.0
54808.0,STARLINK-5413,PAYLOAD,2024-08-18 20:18:48,15.08883401,0.0001468,53.2175,43.4414,108.1524,251.9628,0.00043844,6.705e-05,0.0,0 STARLINK-5413,1 54808U 22175BC  24231.84639618  .00006705  00000-0  43844-3 0  9993,2 54808  53.2175  43.4414 0001468 108.1524 251.9628 15.08883401 92451,6917.748,95.435,540.628,538.597,0.0
54808.0,STARLINK-5413,PAYLOAD,2024-08-18 21:54:11,15.08885335,0.0001463,53.2173,43.1433,110.1949,249.92,0.00048163,7.395e-05,0.0,0 STARLINK-5413,1 54808U 22175BC  24231.91263269  .00007395  00000-0  48163-3 0  9991,2 54808  53.2173  43.1433 0001463 110.1949 249.9200 15.08885335 94628,6917.742,95.435,540.619,538.595,0.0
54808.0,STARLINK-5413,PAYLOAD,2024-08-19 12:12:40,15.08845073,0.0001423,53.2169,40.4667,85.6432,274.4723,-0.00060637,-9.927e-05,0.0,0 STARLINK-5413,1 54808U 22175BC  24232.50879717 -.00009927  00000-0 -60637-3 0  9993,2 54808  53.2169  40.4667 0001423  85.6432 274.4723 15.08845073 92559,6917.865,95.437,540.714,538.745,0.0
54808.0,STARLINK-5413,PAYLOAD,2024-08-19 13:48:02,15.08850558,0.0001399,53.2169,40.1693,83.0559,277.0592,-0.00064306,-0.00010511,0.0,0 STARLINK-5413,1 54808U 22175BC  24232.57503319 -.00010511  00000-0 -64306-3 0  9990,2 54808  53.2169  40.1693 0001399  83.0559 277.0592 15.08850558 94727,6917.848,95.437,540.681,538.745,0.0
54808.0,STARLINK-5413,PAYLOAD,2024-08-19 20:09:35,15.08847682,0.000138,53.2167,38.9797,76.2389,283.8756,0.0012602,0.00019829,0.0,0 STARLINK-5413,1 54808U 22175BC  24232.83999360  .00019829  00000-0  12602-2 0  9994,2 54808  53.2167  38.9797 0001380  76.2389 283.8756 15.08847682 92606,6917.857,95.437,540.677,538.767,0.0
54808.0,STARLINK-5413,PAYLOAD,2024-08-20 12:03:27,15.08842042,0.0001271,53.2167,36.0059,84.1213,275.9924,0.0010153,0.00015908,0.0,0 STARLINK-5413,1 54808U 22175BC  24233.50239733  .00015908  00000-0  10153-2 0  9993,2 54808  53.2167  36.0059 0001271  84.1213 275.9924 15.08842042 92704,6917.874,95.437,540.618,538.86,0.0
54808.0,STARLINK-5413,PAYLOAD,2024-08-20 13:38:50,15.0884871,0.0001357,53.2167,35.7085,80.362,279.7525,0.0014266,0.00022495,0.0,0 STARLINK-5413,1 54808U 22175BC  24233.56863770  .00022495  00000-0  14266-2 0  9991,2 54808  53.2167  35.7085 0001357  80.3620 279.7525 15.08848710 94871,6917.854,95.437,540.658,538.78,0.0
54808.0,STARLINK-5413,PAYLOAD,2024-08-20 23:11:08,15.08870831,0.0001353,53.2166,33.9243,76.9495,283.1648,0.0027466,0.00043733,0.0,0 STARLINK-5413,1 54808U 22175BC  24233.96607517  .00043733  00000-0  27466-2 0  9994,2 54808  53.2166  33.9243 0001353  76.9495 283.1648 15.08870831 92774,6917.786,95.436,540.587,538.715,0.0
54808.0,STARLINK-5413,PAYLOAD,2024-08-21 10:18:51,15.08848862,0.0001136,53.2166,31.8425,81.5954,278.5167,0.0011437,0.00017965,0.0,0 STARLINK-5413,1 54808U 22175BC  24234.42975925  .00017965  00000-0  11437-2 0  9996,2 54808  53.2166  31.8425 0001136  81.5954 278.5167 15.08848862 92845,6917.853,95.437,540.504,538.932,0.0
54808.0,STARLINK-5413,PAYLOAD,2024-08-21 15:05:00,15.08843666,0.0001171,53.2168,30.9507,107.1343,252.9778,0.0012158,0.00019116,0.0,0 STARLINK-5413,1 54808U 22175BC  24234.62848076  .00019116  00000-0  12158-2 0  9995,2 54808  53.2168  30.9507 0001171 107.1343 252.9778 15.08843666 95039,6917.869,95.437,540.544,538.924,0.0
54808.0,STARLINK-5413,PAYLOAD,2024-08-21 18:15:47,15.08840375,0.0001192,53.217,30.3561,80.8239,279.2888,0.0015549,0.00024545,0.0,0 STARLINK-5413,1 54808U 22175BC  24234.76096393  .00024545  00000-0  15549-2 0  9996,2 54808  53.2170  30.3561 0001192  80.8239 279.2888 15.08840375 92899,6917.879,95.438,540.569,538.92,0.0
